{"type": "FeatureCollection", "features": [ {"type": "Feature", "properties": {"norad_id": 34077, "name": "IRIDIUM 33 DEB", "group": "iridium-33-debris", "lat": 39.34758991361773, "lon": 58.676491069524985, "alt_km": 668.8041911234186, "timestamp": "2025-12-03T04:52:30.022850+00:00", "meta": {"OBJECT_NAME": "IRIDIUM 33 DEB", "OBJECT_ID": "1997-051CL", "EPOCH": "2025-12-02T17:45:19.641024", "MEAN_MOTION": 14.64560219, "ECCENTRICITY": 0.0011006, "INCLINATION": 86.3871, "RA_OF_ASC_NODE": 55.911, "ARG_OF_PERICENTER": 70.8533, "MEAN_ANOMALY": 47.529, "EPHEMERIS_TYPE": 0, "CLASSIFICATION_TYPE": "U", "NORAD_CAT_ID": 34077, "ELEMENT_SET_NO": 999, "REV_AT_EPOCH": 88186, "BSTAR": 0.0021172, "MEAN_MOTION_DOT": 0.0001127, "MEAN_MOTION_DDOT": 0}, "tle": {"line1": "1 34077U 97051CL  25336.73981066  .00011270  00000+0  21172-2 0  9997", "line2": "2 34077  86.3871  55.9110 0011006  70.8533  47.5290 14.64560219881867"}}, "geometry": {"type": "Point", "coordinates": [58.676491069524985, 39.34758991361773]}}, {"type": "Feature", "properties": {"norad_id": 34079, "name": "IRIDIUM 33 DEB", "group": "iridium-33-debris", "lat": 66.35308043129241, "lon": -175.31789099929537, "alt_km": 612.0064902990953, "timestamp": "2025-12-03T04:52:30.022860+00:00", "meta": {"OBJECT_NAME": "IRIDIUM 33 DEB", "OBJECT_ID": "1997-051CN", "EPOCH": "2025-12-02T20:49:31.052928", "MEAN_MOTION": 14.83114915, "ECCENTRICITY": 0.0006779, "INCLINATION": 86.3787, "RA_OF_ASC_NODE": 13.1506, "ARG_OF_PERICENTER": 37.8553, "MEAN_ANOMALY": 85.7875, "EPHEMERIS_TYPE": 0, "CLASSIFICATION_TYPE": "U", "NORAD_CAT_ID": 34079, "ELEMENT_SET_NO": 999, "REV_AT_EPOCH": 88831, "BSTAR": 0.0020737, "MEAN_MOTION_DOT": 0.00016948, "MEAN_MOTION_DDOT": 0}, "tle": {"line1": "1 34079U 97051CN  25336.86772052  .00016948  00000+0  20737-2 0  9999", "line2": "2 34079  86.3787  13.1506 0006779  37.8553  85.7875 14.83114915888315"}}, "geometry": {"type": "Point", "coordinates": [-175.31789099929537, 66.35308043129241]}}, {"type": "Feature", "properties": {"norad_id": 34088, "name": "IRIDIUM 33 DEB", "group": "iridium-33-debris", "lat": -58.793468458938065, "lon": 29.115048891970257, "alt_km": 603.1908250143715, "timestamp": "2025-12-03T04:52:30.022870+00:00", "meta": {"OBJECT_NAME": "IRIDIUM 33 DEB", "OBJECT_ID": "1997-051CX", "EPOCH": "2025-12-02T16:49:00.759072", "MEAN_MOTION": 14.90581573, "ECCENTRICITY": 0.0005128, "INCLINATION": 86.3862, "RA_OF_ASC_NODE": 35.3339, "ARG_OF_PERICENTER": 213.7318, "MEAN_ANOMALY": 273.0169, "EPHEMERIS_TYPE": 0, "CLASSIFICATION_TYPE": "U", "NORAD_CAT_ID": 34088, "ELEMENT_SET_NO": 999, "REV_AT_EPOCH": 88592, "BSTAR": 0.0032335, "MEAN_MOTION_DOT": 0.00031763, "MEAN_MOTION_DDOT": 0}, "tle": {"line1": "1 34088U 97051CX  25336.70070323  .00031763  00000+0  32335-2 0  9993", "line2": "2 34088  86.3862  35.3339 0005128 213.7318 273.0169 14.90581573885928"}}, "geometry": {"type": "Point", "coordinates": [29.115048891970257, -58.793468458938065]}}, {"type": "Feature", "properties": {"norad_id": 34091, "name": "IRIDIUM 33 DEB", "group": "iridium-33-debris", "lat": 77.51496420048306, "lon": -125.5967465564813, "alt_km": 636.33758459206, "timestamp": "2025-12-03T04:52:30.022882+00:00", "meta": {"OBJECT_NAME": "IRIDIUM 33 DEB", "OBJECT_ID": "1997-051DA", "EPOCH": "2025-12-02T05:42:26.763264", "MEAN_MOTION": 14.80503091, "ECCENTRICITY": 0.0032917, "INCLINATION": 86.342, "RA_OF_ASC_NODE": 71.638, "ARG_OF_PERICENTER": 331.035, "MEAN_ANOMALY": 28.9043, "EPHEMERIS_TYPE": 0, "CLASSIFICATION_TYPE": "U", "NORAD_CAT_ID": 34091, "ELEMENT_SET_NO": 999, "REV_AT_EPOCH": 87711, "BSTAR": 0.0059169, "MEAN_MOTION_DOT": 0.00045975, "MEAN_MOTION_DDOT": 0}, "tle": {"line1": "1 34091U 97051DA  25336.23780976  .00045975  00000+0  59169-2 0  9991", "line2": "2 34091  86.3420  71.6380 0032917 331.0350  28.9043 14.80503091877115"}}, "geometry": {"type": "Point", "coordinates": [-125.5967465564813, 77.51496420048306]}}, {"type": "Feature", "properties": {"norad_id": 34097, "name": "IRIDIUM 33 DEB", "group": "iridium-33-debris", "lat": 34.02737005186393, "lon": -176.9542801544873, "alt_km": 796.7743600947506, "timestamp": "2025-12-03T04:52:30.022893+00:00", "meta": {"OBJECT_NAME": "IRIDIUM 33 DEB", "OBJECT_ID": "1997-051DG", "EPOCH": "2025-12-02T19:50:04.615584", "MEAN_MOTION": 14.34654028, "ECCENTRICITY": 0.0083724, "INCLINATION": 86.2009, "RA_OF_ASC_NODE": 5.7833, "ARG_OF_PERICENTER": 34.3438, "MEAN_ANOMALY": 326.313, "EPHEMERIS_TYPE": 0, "CLASSIFICATION_TYPE": "U", "NORAD_CAT_ID": 34097, "ELEMENT_SET_NO": 999, "REV_AT_EPOCH": 86977, "BSTAR": 0.0016604, "MEAN_MOTION_DOT": 4.904e-05, "MEAN_MOTION_DDOT": 0}, "tle": {"line1": "1 34097U 97051DG  25336.82644231  .00004904  00000+0  16604-2 0  9999", "line2": "2 34097  86.2009   5.7833 0083724  34.3438 326.3130 14.34654028869777"}}, "geometry": {"type": "Point", "coordinates": [-176.9542801544873, 34.02737005186393]}}, {"type": "Feature", "properties": {"norad_id": 34145, "name": "IRIDIUM 33 DEB", "group": "iridium-33-debris", "lat": 23.019768761222963, "lon": 155.16133469542453, "alt_km": 717.759927974791, "timestamp": "2025-12-03T04:52:30.022904+00:00", "meta": {"OBJECT_NAME": "IRIDIUM 33 DEB", "OBJECT_ID": "1997-051DY", "EPOCH": "2025-12-02T18:09:46.439136", "MEAN_MOTION": 14.4217642, "ECCENTRICITY": 0.0055248, "INCLINATION": 86.2115, "RA_OF_ASC_NODE": 336.9733, "ARG_OF_PERICENTER": 125.5687, "MEAN_ANOMALY": 235.0681, "EPHEMERIS_TYPE": 0, "CLASSIFICATION_TYPE": "U", "NORAD_CAT_ID": 34145, "ELEMENT_SET_NO": 999, "REV_AT_EPOCH": 87494, "BSTAR": 0.0012883, "MEAN_MOTION_DOT": 4.339e-05, "MEAN_MOTION_DDOT": 0}, "tle": {"line1": "1 34145U 97051DY  25336.75678749  .00004339  00000+0  12883-2 0  9993", "line2": "2 34145  86.2115 336.9733 0055248 125.5687 235.0681 14.42176420874942"}}, "geometry": {"type": "Point", "coordinates": [155.16133469542453, 23.019768761222963]}}, {"type": "Feature", "properties": {"norad_id": 34146, "name": "IRIDIUM 33 DEB", "group": "iridium-33-debris", "lat": -76.96591893235052, "lon": -22.29098622442951, "alt_km": 720.655199268208, "timestamp": "2025-12-03T04:52:30.022914+00:00", "meta": {"OBJECT_NAME": "IRIDIUM 33 DEB", "OBJECT_ID": "1997-051DZ", "EPOCH": "2025-12-02T13:15:13.588704", "MEAN_MOTION": 14.48931558, "ECCENTRICITY": 0.00249634, "INCLINATION": 86.2839, "RA_OF_ASC_NODE": 354.3012, "ARG_OF_PERICENTER": 258.2164, "MEAN_ANOMALY": 231.2371, "EPHEMERIS_TYPE": 0, "CLASSIFICATION_TYPE": "U", "NORAD_CAT_ID": 34146, "ELEMENT_SET_NO": 999, "REV_AT_EPOCH": 87959, "BSTAR": 0.0012342017, "MEAN_MOTION_DOT": 4.71e-05, "MEAN_MOTION_DDOT": 0}, "tle": {"line1": "1 34146U 97051DZ  25336.55224061  .00004710  00000+0  12342-2 0  9999", "line2": "2 34146  86.2839 354.3012 0024963 258.2164 231.2371 14.48931558879591"}}, "geometry": {"type": "Point", "coordinates": [-22.29098622442951, -76.96591893235052]}}, {"type": "Feature", "properties": {"norad_id": 34159, "name": "IRIDIUM 33 DEB", "group": "iridium-33-debris", "lat": -1.9845842507757931, "lon": 52.18019448756223, "alt_km": 751.7300044221929, "timestamp": "2025-12-03T04:52:30.022925+00:00", "meta": {"OBJECT_NAME": "IRIDIUM 33 DEB", "OBJECT_ID": "1997-051EN", "EPOCH": "2025-12-02T17:11:51.335232", "MEAN_MOTION": 14.38452068, "ECCENTRICITY": 0.002654, "INCLINATION": 86.3516, "RA_OF_ASC_NODE": 52.5142, "ARG_OF_PERICENTER": 322.9062, "MEAN_ANOMALY": 37.0301, "EPHEMERIS_TYPE": 0, "CLASSIFICATION_TYPE": "U", "NORAD_CAT_ID": 34159, "ELEMENT_SET_NO": 999, "REV_AT_EPOCH": 87815, "BSTAR": 0.00053465, "MEAN_MOTION_DOT": 1.657e-05, "MEAN_MOTION_DDOT": 0}, "tle": {"line1": "1 34159U 97051EN  25336.71656638  .00001657  00000+0  53465-3 0  9999", "line2": "2 34159  86.3516  52.5142 0026540 322.9062  37.0301 14.38452068878157"}}, "geometry": {"type": "Point", "coordinates": [52.18019448756223, -1.9845842507757931]}}, {"type": "Feature", "properties": {"norad_id": 34350, "name": "IRIDIUM 33 DEB", "group": "iridium-33-debris", "lat": 29.540368126938894, "lon": -175.14018351381998, "alt_km": 724.4941176563625, "timestamp": "2025-12-03T04:52:30.022936+00:00", "meta": {"OBJECT_NAME": "IRIDIUM 33 DEB", "OBJECT_ID": "1997-051ES", "EPOCH": "2025-12-02T20:40:44.824224", "MEAN_MOTION": 14.45350239, "ECCENTRICITY": 0.0021812, "INCLINATION": 86.3282, "RA_OF_ASC_NODE": 7.0934, "ARG_OF_PERICENTER": 166.4146, "MEAN_ANOMALY": 8.1872, "EPHEMERIS_TYPE": 0, "CLASSIFICATION_TYPE": "U", "NORAD_CAT_ID": 34350, "ELEMENT_SET_NO": 999, "REV_AT_EPOCH": 88150, "BSTAR": 0.00040994, "MEAN_MOTION_DOT": 1.464e-05, "MEAN_MOTION_DDOT": 0}, "tle": {"line1": "1 34350U 97051ES  25336.86162991  .00001464  00000+0  40994-3 0  9991", "line2": "2 34350  86.3282   7.0934 0021812 166.4146   8.1872 14.45350239881505"}}, "geometry": {"type": "Point", "coordinates": [-175.14018351381998, 29.540368126938894]}}, {"type": "Feature", "properties": {"norad_id": 34366, "name": "IRIDIUM 33 DEB", "group": "iridium-33-debris", "lat": -3.0025755372707055, "lon": -126.34939756839655, "alt_km": 701.3735874635213, "timestamp": "2025-12-03T04:52:30.022946+00:00", "meta": {"OBJECT_NAME": "IRIDIUM 33 DEB", "OBJECT_ID": "1997-051FJ", "EPOCH": "2025-12-02T17:03:14.468832", "MEAN_MOTION": 14.53901714, "ECCENTRICITY": 0.0021668, "INCLINATION": 86.3709, "RA_OF_ASC_NODE": 53.6739, "ARG_OF_PERICENTER": 171.9612, "MEAN_ANOMALY": 314.5418, "EPHEMERIS_TYPE": 0, "CLASSIFICATION_TYPE": "U", "NORAD_CAT_ID": 34366, "ELEMENT_SET_NO": 999, "REV_AT_EPOCH": 88036, "BSTAR": 0.0016349, "MEAN_MOTION_DOT": 6.918e-05, "MEAN_MOTION_DDOT": 0}, "tle": {"line1": "1 34366U 97051FJ  25336.71058413  .00006918  00000+0  16349-2 0  9990", "line2": "2 34366  86.3709  53.6739 0021668 171.9612 314.5418 14.53901714880366"}}, "geometry": {"type": "Point", "coordinates": [-126.34939756839655, -3.0025755372707055]}}]}